areas = [{"placeName":"Treasure Coast International Airport","rainfall":"Treasure Coast International Airport experienced 15.91 inches of rain. ","latitude":27.492405,"longitude":-80.368002},
{"placeName":"Oviedo","rainfall":"Oviedo experienced 26.30 inches of rain. ","latitude":28.668208,"longitude":-81.199776},
{"placeName":"Chekika","rainfall":"Evergaldes National Park, in Chekika, experienced 13.83 inches of rain.","latitude":25.595056,"longitude":-80.452122},
{"placeName":"Inlikita ","rainfall":"Inlikita experienced 13.63 inches of rain.","latitude":25.600555,"longitude":-80.486762},
{"placeName":"Gainesville","rainfall":"Gainesville experienced 22.64 inches of rain.","latitude":29.696803,"longitude":82.327731},
{"placeName":"Mims","rainfall":"Mims experienced 12.11 inches of rain.","latitude":28.673443,"longitude":-80.853585},
{"placeName":"Naples","rainfall":"Naples experienced 11.87 inches of rain. ","latitude":26.158989,"longitude":-81.804327},
{"placeName":"National Key Deer Refuge","rainfall":"The National Key Deer Refuge experienced 11.74 inches of rain. ","latitude":24.672094,"longitude":-81.356527},
{"placeName":"Starke ","rainfall":"Starke experienced 11.33 inches of rain. ","latitude":29.962302,"longitude":-82.11008},
{"placeName":"West Melbourne ","rainfall":"West Melbourne experienced 11.21 inches of rain. ","latitude":28.058472,"longitude":-80.651098},
{"placeName":"Jacksonville","rainfall":"Jacksonville experienced 11.17 inches of rain. ","latitude":30.339654,"longitude":-81.653624},
{"placeName":"Fleming Island","rainfall":"Fleming Island experienced 15.67 inches of rain. ","latitude":30.084263,"longitude":-81.719184},
{"placeName":"Switzerland","rainfall":"Switzerland Fruit Cove experienced 11.11 inches of rain.","latitude":30.075703,"longitude":-81.647227},
{"placeName":"Ortega","rainfall":"Ortega experienced 11 inches of rain. ","latitude":30.267237,"longitude":-81.704319},
{"placeName":"Southwest Florida International Airport","rainfall":"The Southwest Florida International Airport experienced 10.33 inches of rain. ","latitude":26.533312,"longitude":-81.755255},
{"placeName":"Summerfield","rainfall":"Summerfield experienced 10.04 inches of rain. ","latitude":29.006971,"longitude":-82.02066},
{"placeName":"Oasis Ranger Station","rainfall":"The Oasis Ranger Station experienced 9.67 inches of rain.","latitude":25.85729,"longitude":-81.033576},
{"placeName":"Okeechobee County Airport","rainfall":"The Okeechobee County Airport experienced 9.65 inches of rain.","latitude":27.266448,"longitude":-80.851253},
{"placeName":"Fort Lauderdale Executive Airport","rainfall":"The Fort Lauderdale Executive Airport experienced 9.57 inches of rain.","latitude":26.200526,"longitude":-80.171423},
{"placeName":"Orlando Sanford International Airport","rainfall":"The Orlando Sanford International Airport experienced 9.42 inches of rain. ","latitude":28.77868,"longitude":-81.236317},
{"placeName":"Ochopee","rainfall":"Ochopee experienced 9.27 inches of rain. ","latitude":25.9011,"longitude":-81.303367},
{"placeName":"Olustee ","rainfall":"Olustee experienced 9.17 inches of rain. ","latitude":30.204071,"longitude":-82.428676},
{"placeName":"Alachua","rainfall":"Alachua experienced 8.61 inches of rain. ","latitude":29.789561,"longitude":-82.504136},
{"placeName":"Miles City","rainfall":"Miles City experienced 8.26 inches of rain.","latitude":26.157455,"longitude":-81.357483},
{"placeName":"Belleair","rainfall":"Belleair experienced 8.11 inches of rain.","latitude":27.934494,"longitude":-82.804948},
{"placeName":"Opa-Locka Executive Airport","rainfall":"The Opa-Locka Executive Airport experienced 7.99 inches of rain. ","latitude":25.907025,"longitude":-80.277398},
{"placeName":"Orlando Executive Airport","rainfall":"The Orlando Executive Airport experienced 7.68 inches of rain. ","latitude":28.545946,"longitude":-81.332082},
{"placeName":"Fort White","rainfall":"Fort White experienced 7.57 inches of rain. ","latitude":29.921923,"longitude":-82.713322},
{"placeName":"Interlachen","rainfall":"Interlachen experienced 6.22 inches of rain. ","latitude":29.62338,"longitude":-81.889836},
{"placeName":"Tallyrand ","rainfall":"Tallyrand experienced 6.15 inches of rain. ","latitude":30.368517,"longitude":-81.633773},
{"placeName":"Daytona Beach International Airport","rainfall":"The Daytona Beach International Airport experienced 5.86 inches of rain.","latitude":29.182978,"longitude":-81.05913},
{"placeName":"Hollywood","rainfall":"Hollywood experienced 4.68 inches of rain. ","latitude":26.009948,"longitude":-80.151949},
{"placeName":"Palm City","rainfall":"Palm City experienced 4.58 inches of rain. ","latitude":27.167438,"longitude":-80.26992},
{"placeName":"Miami Beach","rainfall":"Miami Beach experienced 3.95 inches of rain. ","latitude":25.807134,"longitude":-80.131218},
{"placeName":"Vero Beach","rainfall":"Vero Beach experienced 3.25 inches of rain. ","latitude":27.650208,"longitude":-80.41404}]
