locations = [{"placeName":"San German","rainfall":"San German experienced 11.12 inches of rain.","latitude":18.163106,"longitude":-67.015771},
{"placeName":"Cabo Rojo","rainfall":"Cabo Rojo experienced 7.92 inches of rain.","latitude":17.96596,"longitude":-67.164773},
{"placeName":"Maricao","rainfall":"Maricao experienced 22 inches of rain.","latitude":18.174197,"longitude":-66.982126},
{"placeName":"Sabana Grande","rainfall":"Sabana Grande experienced 5.08 inches of rain.","latitude":18.114166,"longitude":-66.930627},
{"placeName":"Guanica","rainfall":"Guanica experienced 7.09 inches of rain.","latitude":17.952967,"longitude":-66.885981},
{"placeName":"Yauco","rainfall":"Yauco experienced 13.69 inches of rain.","latitude":18.05695,"longitude":-66.839428},
{"placeName":"Lares","rainfall":"Lares experienced 7.04 inches of rain.","latitude":18.315826,"longitude":-66.878294},
{"placeName":"Arecibo","rainfall":"Arecibo experienced 14.71 inches of rain.","latitude":18.471047,"longitude":-66.703611},
{"placeName":"Vega Baja","rainfall":"Vega Baja experienced 11.86 inches of rain.","latitude":18.382308,"longitude":-66.434539},
{"placeName":"Utuado","rainfall":"Utuado experienced 28.49 inches of rain.","latitude":18.269192,"longitude":-66.712153},
{"placeName":"Ponce","rainfall":"Ponce experienced 22.12 inches of rain.","latitude":18.090415,"longitude":-66.64962},
{"placeName":"Orocovis","rainfall":"Orocovis experienced 47.58 inches of rain.","latitude":18.209328,"longitude":-66.434362},
{"placeName":"Villalba","rainfall":"Villalba experienced 50.77 inches of rain.","latitude":18.133038,"longitude":-66.466395},
{"placeName":"Corozal","rainfall":"Corozal experienced 12.22 inches of rain.","latitude":18.295723,"longitude":-66.359193},
{"placeName":"Barranquitas","rainfall":"Barranquitas experienced 22.28 inches of rain.","latitude":18.194722,"longitude":-66.350224},
{"placeName":"Coamo","rainfall":"Coamo experienced 18.84 inches of rain.","latitude":18.071332,"longitude":-66.342109},
{"placeName":"Salinas","rainfall":"Salinas experienced 7.55 inches of rain.","latitude":18.009605,"longitude":-66.294274},
{"placeName":"Aibonito","rainfall":"Aibonito experienced 19.33 inches of rain.","latitude":18.133038,"longitude":-66.273774},
{"placeName":"Comerio","rainfall":"Comerio experienced 17.50 inches of rain.","latitude":18.225556,"longitude":-66.218251},
{"placeName":"Cidra","rainfall":"Cidra experienced 35.03 inches of rain. ","latitude":18.173622,"longitude":-66.170843},
{"placeName":"Guayama","rainfall":"Guayama experienced 9.83 inches of rain. ","latitude":17.976767,"longitude":-66.079446},
{"placeName":"Bayamon","rainfall":"Bayamon experienced 16.36 inches of rain.","latitude":18.336144,"longitude":-66.138606},
{"placeName":"Carolina","rainfall":"Carolina experienced 14.50 inches of rain.","latitude":18.437062,"longitude":-65.989122},
{"placeName":"Aguas Buenas","rainfall":"Aguas Buenas experienced 12.15 inches of rain.","latitude":18.295522,"longitude":-66.071001},
{"placeName":"Caguas","rainfall":"Caguas experienced 93.40 inches of rain.","latitude":18.201419,"longitude":-66.04751},
{"placeName":"San Lorenzo","rainfall":"San Lorenzo experienced 31.74 inches of rain.","latitude":18.187218,"longitude":-65.999248},
{"placeName":"Juncos","rainfall":"Juncos experienced 23.89 inches of rain.","latitude":18.268351,"longitude":-65.918527},
{"placeName":"Canovanas","rainfall":"Canovanas experienced 18.15 inches of rain.","latitude":18.306065,"longitude":-65.866421},
{"placeName":"Ceiba","rainfall":"Ceiba experienced 14.43 inches of rain.","latitude":18.267134,"longitude":-65.714374}]
